{
  "type": "FeatureCollection",
  "features": [
    {
      "type": "Feature",
      "properties": {
        "norad_id": 29857,
        "name": "FENGYUN 1C DEB",
        "group": "fengyun-1c-debris",
        "lat": 36.93632586443087,
        "lon": -7.285571738900859,
        "alt_km": 1019.7427677052974,
        "timestamp": "2025-12-18T08:58:43.683391+00:00",
        "meta_object_name": "FENGYUN 1C DEB",
        "meta_object_id": "1999-025FB",
        "meta_epoch": "2025-12-17T11:56:42.283104",
        "meta_mean_motion": 13.81898034,
        "meta_eccentricity": 0.01927758,
        "meta_inclination": 98.4224,
        "meta_ra_of_asc_node": 358.3262,
        "meta_arg_of_pericenter": 281.4112,
        "meta_mean_anomaly": 76.5448,
        "meta_ephemeris_type": 0,
        "meta_classification_type": "U",
        "meta_norad_cat_id": 29857,
        "meta_element_set_no": 999,
        "meta_rev_at_epoch": 94841,
        "meta_bstar": 0.0013242195,
        "meta_mean_motion_dot": 1.597e-05,
        "meta_mean_motion_ddot": 0,
        "tle_line1": "1 29857U 99025FB  25351.49771161  .00001597  00000+0  13242-2 0  9993",
        "tle_line2": "2 29857  98.4224 358.3262 0192775 281.4112  76.5448 13.81898034948416"
      },
      "geometry": {
        "type": "Point",
        "coordinates": [
          -7.285571738900859,
          36.93632586443087
        ]
      }
    },
    {
      "type": "Feature",
      "properties": {
        "norad_id": 29858,
        "name": "FENGYUN 1C DEB",
        "group": "fengyun-1c-debris",
        "lat": -34.91468114770483,
        "lon": -92.66737134481765,
        "alt_km": 1118.8919557628278,
        "timestamp": "2025-12-18T08:58:43.683401+00:00",
        "meta_object_name": "FENGYUN 1C DEB",
        "meta_object_id": "1999-025FC",
        "meta_epoch": "2025-12-17T18:43:10.900992",
        "meta_mean_motion": 13.77798964,
        "meta_eccentricity": 0.01980281,
        "meta_inclination": 99.2131,
        "meta_ra_of_asc_node": 93.2606,
        "meta_arg_of_pericenter": 50.962,
        "meta_mean_anomaly": 98.4639,
        "meta_ephemeris_type": 0,
        "meta_classification_type": "U",
        "meta_norad_cat_id": 29858,
        "meta_element_set_no": 999,
        "meta_rev_at_epoch": 94623,
        "meta_bstar": 0.00089797879,
        "meta_mean_motion_dot": 9.97e-06,
        "meta_mean_motion_ddot": 0,
        "tle_line1": "1 29858U 99025FC  25351.77998728  .00000997  00000+0  89798-3 0  9998",
        "tle_line2": "2 29858  99.2131  93.2606 0198028  50.9620  98.4639 13.77798964946239"
      },
      "geometry": {
        "type": "Point",
        "coordinates": [
          -92.66737134481765,
          -34.91468114770483
        ]
      }
    },
    {
      "type": "Feature",
      "properties": {
        "norad_id": 29859,
        "name": "FENGYUN 1C DEB",
        "group": "fengyun-1c-debris",
        "lat": 51.87937534458608,
        "lon": 175.61501476438127,
        "alt_km": 1155.790794429944,
        "timestamp": "2025-12-18T08:58:43.683411+00:00",
        "meta_object_name": "FENGYUN 1C DEB",
        "meta_object_id": "1999-025FD",
        "meta_epoch": "2025-12-17T11:44:12.777792",
        "meta_mean_motion": 13.7406085,
        "meta_eccentricity": 0.02947109,
        "meta_inclination": 98.3351,
        "meta_ra_of_asc_node": 185.6091,
        "meta_arg_of_pericenter": 200.1285,
        "meta_mean_anomaly": 158.8046,
        "meta_ephemeris_type": 0,
        "meta_classification_type": "U",
        "meta_norad_cat_id": 29859,
        "meta_element_set_no": 999,
        "meta_rev_at_epoch": 94045,
        "meta_bstar": 0.0018021507,
        "meta_mean_motion_dot": 2.282e-05,
        "meta_mean_motion_ddot": 0,
        "tle_line1": "1 29859U 99025FD  25351.48903678  .00002282  00000+0  18022-2 0  9997",
        "tle_line2": "2 29859  98.3351 185.6091 0294710 200.1285 158.8046 13.74060850940453"
      },
      "geometry": {
        "type": "Point",
        "coordinates": [
          175.61501476438127,
          51.87937534458608
        ]
      }
    },
    {
      "type": "Feature",
      "properties": {
        "norad_id": 29860,
        "name": "FENGYUN 1C DEB",
        "group": "fengyun-1c-debris",
        "lat": -79.89800620444029,
        "lon": 147.43314608689334,
        "alt_km": 904.0056617849195,
        "timestamp": "2025-12-18T08:58:43.683421+00:00",
        "meta_object_name": "FENGYUN 1C DEB",
        "meta_object_id": "1999-025FE",
        "meta_epoch": "2025-12-17T16:36:01.130400",
        "meta_mean_motion": 13.77555081,
        "meta_eccentricity": 0.02211336,
        "meta_inclination": 98.6176,
        "meta_ra_of_asc_node": 25.15,
        "meta_arg_of_pericenter": 329.8446,
        "meta_mean_anomaly": 154.6018,
        "meta_ephemeris_type": 0,
        "meta_classification_type": "U",
        "meta_norad_cat_id": 29860,
        "meta_element_set_no": 999,
        "meta_rev_at_epoch": 94207,
        "meta_bstar": 0.0019739598,
        "meta_mean_motion_dot": 2.317e-05,
        "meta_mean_motion_ddot": 0,
        "tle_line1": "1 29860U 99025FE  25351.69167975  .00002317  00000+0  19740-2 0  9991",
        "tle_line2": "2 29860  98.6176  25.1500 0221133 329.8446 154.6018 13.77555081942074"
      },
      "geometry": {
        "type": "Point",
        "coordinates": [
          147.43314608689334,
          -79.89800620444029
        ]
      }
    },
    {
      "type": "Feature",
      "properties": {
        "norad_id": 29865,
        "name": "FENGYUN 1C DEB",
        "group": "fengyun-1c-debris",
        "lat": -29.660507856821205,
        "lon": -91.09360424122208,
        "alt_km": 699.7031678326402,
        "timestamp": "2025-12-18T08:58:43.683432+00:00",
        "meta_object_name": "FENGYUN 1C DEB",
        "meta_object_id": "1999-025FK",
        "meta_epoch": "2025-12-17T17:10:47.027712",
        "meta_mean_motion": 14.82647952,
        "meta_eccentricity": 0.01165379,
        "meta_inclination": 98.921,
        "meta_ra_of_asc_node": 263.0405,
        "meta_arg_of_pericenter": 125.6329,
        "meta_mean_anomaly": 293.4242,
        "meta_ephemeris_type": 0,
        "meta_classification_type": "U",
        "meta_norad_cat_id": 29865,
        "meta_element_set_no": 999,
        "meta_rev_at_epoch": 832,
        "meta_bstar": 0.00050113172,
        "meta_mean_motion_dot": 4.477e-05,
        "meta_mean_motion_ddot": 0,
        "tle_line1": "1 29865U 99025FK  25351.71582208  .00004477  00000+0  50113-3 0  9998",
        "tle_line2": "2 29865  98.9210 263.0405 0116537 125.6329 293.4242 14.82647952  8329"
      },
      "geometry": {
        "type": "Point",
        "coordinates": [
          -91.09360424122208,
          -29.660507856821205
        ]
      }
    },
    {
      "type": "Feature",
      "properties": {
        "norad_id": 29866,
        "name": "FENGYUN 1C DEB",
        "group": "fengyun-1c-debris",
        "lat": 80.49185177024795,
        "lon": -79.55042856483742,
        "alt_km": 721.52085606536,
        "timestamp": "2025-12-18T08:58:43.683442+00:00",
        "meta_object_name": "FENGYUN 1C DEB",
        "meta_object_id": "1999-025FL",
        "meta_epoch": "2025-12-17T10:19:45.918912",
        "meta_mean_motion": 14.6423076,
        "meta_eccentricity": 0.01946619,
        "meta_inclination": 98.0373,
        "meta_ra_of_asc_node": 337.0533,
        "meta_arg_of_pericenter": 200.0025,
        "meta_mean_anomaly": 315.3822,
        "meta_ephemeris_type": 0,
        "meta_classification_type": "U",
        "meta_norad_cat_id": 29866,
        "meta_element_set_no": 999,
        "meta_rev_at_epoch": 395,
        "meta_bstar": 0.00019439092,
        "meta_mean_motion_dot": 1.292e-05,
        "meta_mean_motion_ddot": 0,
        "tle_line1": "1 29866U 99025FL  25351.43039258  .00001292  00000+0  19439-3 0  9998",
        "tle_line2": "2 29866  98.0373 337.0533 0194661 200.0025 315.3822 14.64230760  3957"
      },
      "geometry": {
        "type": "Point",
        "coordinates": [
          -79.55042856483742,
          80.49185177024795
        ]
      }
    },
    {
      "type": "Feature",
      "properties": {
        "norad_id": 29868,
        "name": "FENGYUN 1C DEB",
        "group": "fengyun-1c-debris",
        "lat": -33.15833846156078,
        "lon": -147.1897239903384,
        "alt_km": 731.5200791950901,
        "timestamp": "2025-12-18T08:58:43.683452+00:00",
        "meta_object_name": "FENGYUN 1C DEB",
        "meta_object_id": "1999-025FN",
        "meta_epoch": "2025-12-17T21:27:00.016416",
        "meta_mean_motion": 14.78489909,
        "meta_eccentricity": 0.01961663,
        "meta_inclination": 97.9499,
        "meta_ra_of_asc_node": 37.574,
        "meta_arg_of_pericenter": 347.3649,
        "meta_mean_anomaly": 192.4965,
        "meta_ephemeris_type": 0,
        "meta_classification_type": "U",
        "meta_norad_cat_id": 29868,
        "meta_element_set_no": 999,
        "meta_rev_at_epoch": 371,
        "meta_bstar": 0.00055714649,
        "meta_mean_motion_dot": 5.561e-05,
        "meta_mean_motion_ddot": 0,
        "tle_line1": "1 29868U 99025FN  25351.89375019  .00005561  00000+0  55715-3 0  9998",
        "tle_line2": "2 29868  97.9499  37.5740 0196166 347.3649 192.4965 14.78489909  3719"
      },
      "geometry": {
        "type": "Point",
        "coordinates": [
          -147.1897239903384,
          -33.15833846156078
        ]
      }
    }
  ]
}